[{"CCSDS_OMM_VERS":"2.0","COMMENT":"GENERATED VIA SPACE-TRACK.ORG API","CREATION_DATE":"2021-03-27T06:36:12","ORIGINATOR":"18 SPCS","OBJECT_NAME":"STARLINK-1024","OBJECT_ID":"2019-074S","CENTER_NAME":"EARTH","REF_FRAME":"TEME","TIME_SYSTEM":"UTC","MEAN_ELEMENT_THEORY":"SGP4","EPOCH":"2021-03-27T03:28:36.081984","MEAN_MOTION":"15.06589223","ECCENTRICITY":"0.00015930","INCLINATION":"53.0010","RA_OF_ASC_NODE":"44.8620","ARG_OF_PERICENTER":"22.8303","MEAN_ANOMALY":"337.2756","EPHEMERIS_TYPE":"0","CLASSIFICATION_TYPE":"U","NORAD_CAT_ID":"44729","ELEMENT_SET_NO":"999","REV_AT_EPOCH":"7605","BSTAR":"0.00028136000000","MEAN_MOTION_DOT":"0.00003933","MEAN_MOTION_DDOT":"0.0000000000000","SEMIMAJOR_AXIS":"6924.769","PERIOD":"95.580","APOAPSIS":"547.737","PERIAPSIS":"545.531","OBJECT_TYPE":"PAYLOAD","RCS_SIZE":"LARGE","COUNTRY_CODE":"US","LAUNCH_DATE":"2019-11-11","SITE":"AFETR","DECAY_DATE":null,"FILE":"2996222","GP_ID":"174248063","TLE_LINE0":"0 STARLINK-1024","TLE_LINE1":"1 44729U 19074S   21086.14486206  .00003933  00000-0  28136-3 0  9996","TLE_LINE2":"2 44729  53.0010  44.8620 0001593  22.8303 337.2756 15.06589223 76059"},{"CCSDS_OMM_VERS":"2.0","COMMENT":"GENERATED VIA SPACE-TRACK.ORG API","CREATION_DATE":"2021-03-27T17:47:25","ORIGINATOR":"18 SPCS","OBJECT_NAME":"STARLINK-1024","OBJECT_ID":"2019-074S","CENTER_NAME":"EARTH","REF_FRAME":"TEME","TIME_SYSTEM":"UTC","MEAN_ELEMENT_THEORY":"SGP4","EPOCH":"2021-03-27T08:15:10.907136","MEAN_MOTION":"15.06591329","ECCENTRICITY":"0.00016240","INCLINATION":"53.0011","RA_OF_ASC_NODE":"43.9673","ARG_OF_PERICENTER":"23.5369","MEAN_ANOMALY":"336.5694","EPHEMERIS_TYPE":"0","CLASSIFICATION_TYPE":"U","NORAD_CAT_ID":"44729","ELEMENT_SET_NO":"999","REV_AT_EPOCH":"7591","BSTAR":"0.00029571000000","MEAN_MOTION_DOT":"0.00004148","MEAN_MOTION_DDOT":"0.0000000000000","SEMIMAJOR_AXIS":"6924.762","PERIOD":"95.580","APOAPSIS":"547.752","PERIAPSIS":"545.503","OBJECT_TYPE":"PAYLOAD","RCS_SIZE":"LARGE","COUNTRY_CODE":"US","LAUNCH_DATE":"2019-11-11","SITE":"AFETR","DECAY_DATE":null,"FILE":"2996885","GP_ID":"174282620","TLE_LINE0":"0 STARLINK-1024","TLE_LINE1":"1 44729U 19074S   21086.34387624  .00004148  00000-0  29571-3 0  9995","TLE_LINE2":"2 44729  53.0011  43.9673 0001624  23.5369 336.5694 15.06591329 75910"},{"CCSDS_OMM_VERS":"2.0","COMMENT":"GENERATED VIA SPACE-TRACK.ORG API","CREATION_DATE":"2021-03-28T10:52:08","ORIGINATOR":"18 SPCS","OBJECT_NAME":"STARLINK-1024","OBJECT_ID":"2019-074S","CENTER_NAME":"EARTH","REF_FRAME":"TEME","TIME_SYSTEM":"UTC","MEAN_ELEMENT_THEORY":"SGP4","EPOCH":"2021-03-27T20:59:23.761248","MEAN_MOTION":"15.06594772","ECCENTRICITY":"0.00016570","INCLINATION":"53.0012","RA_OF_ASC_NODE":"41.5811","ARG_OF_PERICENTER":"24.9336","MEAN_ANOMALY":"335.1732","EPHEMERIS_TYPE":"0","CLASSIFICATION_TYPE":"U","NORAD_CAT_ID":"44729","ELEMENT_SET_NO":"999","REV_AT_EPOCH":"7599","BSTAR":"0.00028101000000","MEAN_MOTION_DOT":"0.00003928","MEAN_MOTION_DDOT":"0.0000000000000","SEMIMAJOR_AXIS":"6924.752","PERIOD":"95.580","APOAPSIS":"547.764","PERIAPSIS":"545.469","OBJECT_TYPE":"PAYLOAD","RCS_SIZE":"LARGE","COUNTRY_CODE":"US","LAUNCH_DATE":"2019-11-11","SITE":"AFETR","DECAY_DATE":null,"FILE":"2997756","GP_ID":"174325518","TLE_LINE0":"0 STARLINK-1024","TLE_LINE1":"1 44729U 19074S   21086.87458057  .00003928  00000-0  28101-3 0  9995","TLE_LINE2":"2 44729  53.0012  41.5811 0001657  24.9336 335.1732 15.06594772 75995"},{"CCSDS_OMM_VERS":"2.0","COMMENT":"GENERATED VIA SPACE-TRACK.ORG API","CREATION_DATE":"2021-03-28T17:29:14","ORIGINATOR":"18 SPCS","OBJECT_NAME":"STARLINK-1024","OBJECT_ID":"2019-074S","CENTER_NAME":"EARTH","REF_FRAME":"TEME","TIME_SYSTEM":"UTC","MEAN_ELEMENT_THEORY":"SGP4","EPOCH":"2021-03-28T08:08:04.822944","MEAN_MOTION":"15.06598701","ECCENTRICITY":"0.00016990","INCLINATION":"53.0015","RA_OF_ASC_NODE":"39.4935","ARG_OF_PERICENTER":"26.2688","MEAN_ANOMALY":"333.8386","EPHEMERIS_TYPE":"0","CLASSIFICATION_TYPE":"U","NORAD_CAT_ID":"44729","ELEMENT_SET_NO":"999","REV_AT_EPOCH":"7606","BSTAR":"0.00026260000000","MEAN_MOTION_DOT":"0.00003653","MEAN_MOTION_DDOT":"0.0000000000000","SEMIMAJOR_AXIS":"6924.740","PERIOD":"95.580","APOAPSIS":"547.781","PERIAPSIS":"545.428","OBJECT_TYPE":"PAYLOAD","RCS_SIZE":"LARGE","COUNTRY_CODE":"US","LAUNCH_DATE":"2019-11-11","SITE":"AFETR","DECAY_DATE":null,"FILE":"2998182","GP_ID":"174355695","TLE_LINE0":"0 STARLINK-1024","TLE_LINE1":"1 44729U 19074S   21087.33894471  .00003653  00000-0  26260-3 0  9990","TLE_LINE2":"2 44729  53.0015  39.4935 0001699  26.2688 333.8386 15.06598701 76067"},{"CCSDS_OMM_VERS":"2.0","COMMENT":"GENERATED VIA SPACE-TRACK.ORG API","CREATION_DATE":"2021-03-28T14:26:12","ORIGINATOR":"18 SPCS","OBJECT_NAME":"STARLINK-1024","OBJECT_ID":"2019-074S","CENTER_NAME":"EARTH","REF_FRAME":"TEME","TIME_SYSTEM":"UTC","MEAN_ELEMENT_THEORY":"SGP4","EPOCH":"2021-03-28T08:08:04.822944","MEAN_MOTION":"15.06598701","ECCENTRICITY":"0.00016990","INCLINATION":"53.0015","RA_OF_ASC_NODE":"39.4935","ARG_OF_PERICENTER":"26.2688","MEAN_ANOMALY":"333.8386","EPHEMERIS_TYPE":"0","CLASSIFICATION_TYPE":"U","NORAD_CAT_ID":"44729","ELEMENT_SET_NO":"999","REV_AT_EPOCH":"7623","BSTAR":"0.00026260000000","MEAN_MOTION_DOT":"0.00003653","MEAN_MOTION_DDOT":"0.0000000000000","SEMIMAJOR_AXIS":"6924.740","PERIOD":"95.580","APOAPSIS":"547.781","PERIAPSIS":"545.428","OBJECT_TYPE":"PAYLOAD","RCS_SIZE":"LARGE","COUNTRY_CODE":"US","LAUNCH_DATE":"2019-11-11","SITE":"AFETR","DECAY_DATE":null,"FILE":"2997990","GP_ID":"174332076","TLE_LINE0":"0 STARLINK-1024","TLE_LINE1":"1 44729U 19074S   21087.33894471  .00003653  00000-0  26260-3 0  9990","TLE_LINE2":"2 44729  53.0015  39.4935 0001699  26.2688 333.8386 15.06598701 76236"},{"CCSDS_OMM_VERS":"2.0","COMMENT":"GENERATED VIA SPACE-TRACK.ORG API","CREATION_DATE":"2021-03-29T17:21:22","ORIGINATOR":"18 SPCS","OBJECT_NAME":"STARLINK-1024","OBJECT_ID":"2019-074S","CENTER_NAME":"EARTH","REF_FRAME":"TEME","TIME_SYSTEM":"UTC","MEAN_ELEMENT_THEORY":"SGP4","EPOCH":"2021-03-29T06:25:26.727744","MEAN_MOTION":"15.06605227","ECCENTRICITY":"0.00017810","INCLINATION":"53.0016","RA_OF_ASC_NODE":"35.3179","ARG_OF_PERICENTER":"28.8308","MEAN_ANOMALY":"331.2779","EPHEMERIS_TYPE":"0","CLASSIFICATION_TYPE":"U","NORAD_CAT_ID":"44729","ELEMENT_SET_NO":"999","REV_AT_EPOCH":"7620","BSTAR":"0.00023660000000","MEAN_MOTION_DOT":"0.00003263","MEAN_MOTION_DDOT":"0.0000000000000","SEMIMAJOR_AXIS":"6924.720","PERIOD":"95.579","APOAPSIS":"547.818","PERIAPSIS":"545.351","OBJECT_TYPE":"PAYLOAD","RCS_SIZE":"LARGE","COUNTRY_CODE":"US","LAUNCH_DATE":"2019-11-11","SITE":"AFETR","DECAY_DATE":null,"FILE":"2999519","GP_ID":"174428860","TLE_LINE0":"0 STARLINK-1024","TLE_LINE1":"1 44729U 19074S   21088.26767046  .00003263  00000-0  23660-3 0  9998","TLE_LINE2":"2 44729  53.0016  35.3179 0001781  28.8308 331.2779 15.06605227 76208"},{"CCSDS_OMM_VERS":"2.0","COMMENT":"GENERATED VIA SPACE-TRACK.ORG API","CREATION_DATE":"2021-03-30T04:08:10","ORIGINATOR":"18 SPCS","OBJECT_NAME":"STARLINK-1024","OBJECT_ID":"2019-074S","CENTER_NAME":"EARTH","REF_FRAME":"TEME","TIME_SYSTEM":"UTC","MEAN_ELEMENT_THEORY":"SGP4","EPOCH":"2021-03-29T08:00:58.284288","MEAN_MOTION":"15.06605564","ECCENTRICITY":"0.00017850","INCLINATION":"53.0016","RA_OF_ASC_NODE":"35.0196","ARG_OF_PERICENTER":"29.1200","MEAN_ANOMALY":"330.9887","EPHEMERIS_TYPE":"0","CLASSIFICATION_TYPE":"U","NORAD_CAT_ID":"44729","ELEMENT_SET_NO":"999","REV_AT_EPOCH":"7621","BSTAR":"0.00023329000000","MEAN_MOTION_DOT":"0.00003214","MEAN_MOTION_DDOT":"0.0000000000000","SEMIMAJOR_AXIS":"6924.719","PERIOD":"95.579","APOAPSIS":"547.820","PERIAPSIS":"545.348","OBJECT_TYPE":"PAYLOAD","RCS_SIZE":"LARGE","COUNTRY_CODE":"US","LAUNCH_DATE":"2019-11-11","SITE":"AFETR","DECAY_DATE":null,"FILE":"2999981","GP_ID":"174461017","TLE_LINE0":"0 STARLINK-1024","TLE_LINE1":"1 44729U 19074S   21088.33400792  .00003214  00000-0  23329-3 0  9996","TLE_LINE2":"2 44729  53.0016  35.0196 0001785  29.1200 330.9887 15.06605564 76214"},{"CCSDS_OMM_VERS":"2.0","COMMENT":"GENERATED VIA SPACE-TRACK.ORG API","CREATION_DATE":"2021-03-30T06:36:16","ORIGINATOR":"18 SPCS","OBJECT_NAME":"STARLINK-1024","OBJECT_ID":"2019-074S","CENTER_NAME":"EARTH","REF_FRAME":"TEME","TIME_SYSTEM":"UTC","MEAN_ELEMENT_THEORY":"SGP4","EPOCH":"2021-03-30T03:07:16.760640","MEAN_MOTION":"15.06610432","ECCENTRICITY":"0.00018520","INCLINATION":"53.0017","RA_OF_ASC_NODE":"31.4404","ARG_OF_PERICENTER":"31.6245","MEAN_ANOMALY":"328.4854","EPHEMERIS_TYPE":"0","CLASSIFICATION_TYPE":"U","NORAD_CAT_ID":"44729","ELEMENT_SET_NO":"999","REV_AT_EPOCH":"7650","BSTAR":"0.00019704000000","MEAN_MOTION_DOT":"0.00002671","MEAN_MOTION_DDOT":"0.0000000000000","SEMIMAJOR_AXIS":"6924.704","PERIOD":"95.579","APOAPSIS":"547.851","PERIAPSIS":"545.286","OBJECT_TYPE":"PAYLOAD","RCS_SIZE":"LARGE","COUNTRY_CODE":"US","LAUNCH_DATE":"2019-11-11","SITE":"AFETR","DECAY_DATE":null,"FILE":"3000134","GP_ID":"174467828","TLE_LINE0":"0 STARLINK-1024","TLE_LINE1":"1 44729U 19074S   21089.13005510  .00002671  00000-0  19704-3 0  9992","TLE_LINE2":"2 44729  53.0017  31.4404 0001852  31.6245 328.4854 15.06610432 76507"}]